#aV2014  4  7  0  0  0.00000000     288 DD+AD WGS84 FIT  NGA
## 1787  86400.00000000   300.00000000 56754 0.0000000000000
+   31     1  2  3  4  5  7  8  9 10 11 12 13 14 15 16 17 18
+         19 20 21 22 23 24 25 26 27 28 29 30 31 32  0  0  0
+          0  0  0  0  0  0  0  0  0  0  0  0  0  0  0  0  0
+          0  0  0  0  0  0  0  0  0  0  0  0  0  0  0  0  0
+          0  0  0  0  0  0  0  0  0  0  0  0  0  0  0  0  0
++         2  2  2  2  2  2  2  2  2  2  2  2  2  2  2  2  2
++         2  2  2  2  2  2  2  2  2  2  2  2  2  2  0  0  0
++         0  0  0  0  0  0  0  0  0  0  0  0  0  0  0  0  0
++         0  0  0  0  0  0  0  0  0  0  0  0  0  0  0  0  0
++         0  0  0  0  0  0  0  0  0  0  0  0  0  0  0  0  0
%c cc cc ccc ccc cccc cccc cccc cccc ccccc ccccc ccccc ccccc
%c cc cc ccc ccc cccc cccc cccc cccc ccccc ccccc ccccc ccccc
%f  0.0000000  0.000000000  0.00000000000  0.000000000000000
%f  0.0000000  0.000000000  0.00000000000  0.000000000000000
%i    0    0    0    0      0      0      0      0         0
%i    0    0    0    0      0      0      0      0         0
/*      NGA, ST. LOUIS,MO.                                  
/*   EPHEMERIS COMPUTED FROM  1 DAYS OF DATA                
/*   EPOCHA SMOOTHER                                       
/* CCCCCCCCCCCCCCCCCCCCCCCCCCCCCCCCCCCCCCCCCCCCCCCCCCCCCCCCC
*  2014  4  7 23 55  0.00000000
P  1  11748.462006 -22040.571996  -8868.527983      7.637820                    
V  1   9571.596482  -6506.373411  29074.545550      0.016202                    
P  2 -20734.226071  11264.523484 -11399.229060    488.442954                    
V  2   7310.345541 -13680.639207 -26665.976800      0.021619                    
P  3  12052.474499 -10114.272902  20842.455925    348.876977                    
V  3  12976.968351  24640.020397   4499.367066      0.049129                    
P  4 -17358.943828  -2851.562610 -20269.929353      6.497527                    
V  4  15900.995562 -19423.206146 -10816.853467      0.002795                    
P  5 -23130.890642   4257.496192  12456.728563   -380.156368                    
V  5 -14979.539443  -5756.341836 -25607.194724      0.021020                    
P  7   -980.706287 -18092.030860  19369.916665    332.808949                    
V  7  17824.730017 -16896.363121 -15251.545179      0.042314                    
P  8  -9850.174101 -10630.692198  22408.913438     12.762824                    
V  8  21326.960445 -18128.094651    191.660961      0.002185                    
P  9 -12047.462408  -8246.770543  21665.313945    318.453714                    
V  9  19262.943569 -21316.187807   2367.418926      0.028699                    
P 10 -24745.188418  -9249.777994  -4782.381570   -120.899113                    
V 10   6110.431960  -1583.325642 -30303.462966     -0.013119                    
P 11  11773.168596 -23606.030064   1382.692319   -478.786782                    
V 11   3803.161502   4265.797556  30174.296157     -0.032574                    
P 12  -8156.019810  12789.628173 -21834.512978    197.178761                    
V 12 -26567.122861  -7261.776070   5903.303594      0.024038                    
P 13  -4401.413310 -26069.595636  -1504.258660     12.059872                    
V 13   2707.674769   1222.025526 -32157.946542     -0.038958                    
P 14  13917.536670  18026.116069 -13574.340659    183.621883                    
V 14   2236.183646  17484.638129  24971.413048     -0.033422                    
P 15  -7436.380078  18011.490873  17863.673293   -172.641299                    
V 15  -9831.210173 -20879.700642  17195.086641     -0.021273                    
P 16  23307.778277  -2338.179821  12819.561412   -224.243197                    
V 16  15225.359844   5600.003006 -26218.580117      0.017329                    
P 17 -14810.831057 -16724.352287 -14279.408569    -83.145685                    
V 17  -3093.778432 -18309.415212  23995.234120     -0.032206                    
P 18  12396.898535  16133.885614  17681.910474    311.877740                    
V 18 -21521.831007  -2508.458984  17491.794800      0.023012                    
P 19   9709.862789 -15868.931704  18646.371839   -449.659429                    
V 19   6832.136136  23172.044682  16487.576788     -0.022979                    
P 20   6663.800478 -14974.173613 -21078.078588    177.498041                    
V 20  26082.363820   4622.047673   5078.924813      0.036297                    
P 21   4928.360559  17051.928556  20263.514410   -354.018645                    
V 21 -17460.535762  17377.183778 -11186.215660     -0.022427                    
P 22  22779.835153  11180.876262   8323.176572    225.228681                    
V 22 -10801.250244   1298.467343  28362.592328      0.027703                    
P 23   2358.224012 -22925.394819 -12728.736223    -10.510963                    
V 23   7597.943879  14919.790164 -25672.912149     -0.031651                    
P 24 -15207.491661  21353.512664  -3966.914934    -26.304947                    
V 24  -5556.974945   1792.373878  31197.920254     -0.006083                    
P 25   5935.803401  15605.597790 -20752.823693     21.127988                    
V 25 -25705.566100  -4716.178412 -10802.563708      0.010950                    
P 26 -13595.760676   5737.456010  21405.837934    115.408591                    
V 26  -6527.356211 -28007.260218   3552.266649     -0.112618                    
P 27  14701.739645  -3831.340508  21785.129591    -20.099193                    
V 27   8487.793132  26324.564146  -1047.415210      0.005639                    
P 28 -19880.364572 -13717.290873  11801.546227    345.597312                    
V 28  13835.758883   2401.789506  27390.281071      0.029419                    
P 29   4590.623245  25977.811266  -3268.706177    523.891174                    
V 29  -3501.778152  -3408.511007 -31537.664548      0.026877                    
P 30  -9287.314539 -12158.580125  21703.158772      1.015048                    
V 30  20188.959257 -18792.042091  -1908.127529     -0.024903                    
P 31  19059.005575  -1997.103040 -18375.483249    334.138263                    
V 31 -15474.704625  17700.382839 -17520.881663      0.001338                    
P 32  18453.281211  -7339.506087 -17305.234884   -453.857514                    
V 32  20712.746918   8685.707959  18870.047793      0.075199                    
EOF
